{
    "links": {
        "self": "http://www.neowsapp.com/rest/v1/neo/3757413?api_key=iIulBulltgU6a56xZRHN4H3l9WmuAYTsLGpBGhQ2"
    },
    "id": "3757413",
    "neo_reference_id": "3757413",
    "name": "(2016 PD40)",
    "designation": "2016 PD40",
    "nasa_jpl_url": "http://ssd.jpl.nasa.gov/sbdb.cgi?sstr=3757413",
    "absolute_magnitude_h": 23.6,
    "estimated_diameter": {
        "kilometers": {
            "estimated_diameter_min": 0.0506471459,
            "estimated_diameter_max": 0.1132504611
        },
        "meters": {
            "estimated_diameter_min": 50.6471458835,
            "estimated_diameter_max": 113.2504610618
        },
        "miles": {
            "estimated_diameter_min": 0.0314706677,
            "estimated_diameter_max": 0.0703705522
        },
        "feet": {
            "estimated_diameter_min": 166.1651821003,
            "estimated_diameter_max": 371.5566426699
        }
    },
    "is_potentially_hazardous_asteroid": false,
    "close_approach_data": [
        {
            "close_approach_date": "2016-04-09",
            "close_approach_date_full": "2016-Apr-09 14:42",
            "epoch_date_close_approach": 1460212920000,
            "relative_velocity": {
                "kilometers_per_second": "10.1736284197",
                "kilometers_per_hour": "36625.0623109045",
                "miles_per_hour": "22757.3894120173"
            },
            "miss_distance": {
                "astronomical": "0.0410467615",
                "lunar": "15.9671902235",
                "kilometers": "6140508.090798005",
                "miles": "3815534.798922269"
            },
            "orbiting_body": "Mars"
        },
        {
            "close_approach_date": "2016-07-10",
            "close_approach_date_full": "2016-Jul-10 04:10",
            "epoch_date_close_approach": 1468123800000,
            "relative_velocity": {
                "kilometers_per_second": "6.4286839416",
                "kilometers_per_hour": "23143.2621896592",
                "miles_per_hour": "14380.3231089024"
            },
            "miss_distance": {
                "astronomical": "0.1456074987",
                "lunar": "56.6413169943",
                "kilometers": "21782571.661547769",
                "miles": "13535062.4013024522"
            },
            "orbiting_body": "Earth"
        },
        {
            "close_approach_date": "2146-06-27",
            "close_approach_date_full": "2146-Jun-27 15:25",
            "epoch_date_close_approach": 5569399500000,
            "relative_velocity": {
                "kilometers_per_second": "10.9628558689",
                "kilometers_per_hour": "39466.2811278686",
                "miles_per_hour": "24522.8122930359"
            },
            "miss_distance": {
                "astronomical": "0.2350424428",
                "lunar": "91.4315102492",
                "kilometers": "35161848.802476836",
                "miles": "21848559.7146828968"
            },
            "orbiting_body": "Earth"
        },
        {
            "close_approach_date": "2146-09-21",
            "close_approach_date_full": "2146-Sep-21 23:13",
            "epoch_date_close_approach": 5576857980000,
            "relative_velocity": {
                "kilometers_per_second": "9.3537277664",
                "kilometers_per_hour": "33673.4199591389",
                "miles_per_hour": "20923.3536407216"
            },
            "miss_distance": {
                "astronomical": "0.0643357428",
                "lunar": "25.0266039492",
                "kilometers": "9624490.087747836",
                "miles": "5980380.8265826968"
            },
            "orbiting_body": "Mars"
        }
    ],
    "orbital_data": {
        "orbit_id": "4",
        "orbit_determination_date": "2017-04-06 08:24:31",
        "first_observation_date": "2016-08-11",
        "last_observation_date": "2016-09-10",
        "data_arc_in_days": 30,
        "observations_used": 18,
        "orbit_uncertainty": "7",
        "minimum_orbit_intersection": ".126043",
        "jupiter_tisserand_invariant": "3.277",
        "epoch_osculation": "2459000.5",
        "eccentricity": ".5380864390060059",
        "semi_major_axis": "2.452728106674288",
        "inclination": "3.4239013506548",
        "ascending_node_longitude": "70.58338366066306",
        "orbital_period": "1403.048031014722",
        "perihelion_distance": "1.132948373903977",
        "perihelion_argument": "228.1540450984998",
        "aphelion_distance": "3.772507839444598",
        "perihelion_time": "2458989.732734944433",
        "mean_anomaly": "2.7627104235347",
        "mean_motion": ".2565842309330196",
        "equinox": "J2000",
        "orbit_class": {
            "orbit_class_type": "AMO",
            "orbit_class_description": "Near-Earth asteroid orbits similar to that of 1221 Amor",
            "orbit_class_range": "1.017 AU < q (perihelion) < 1.3 AU"
        }
    },
    "is_sentry_object": false
}